name,cuisine,phone,street,city,state,zip_code
Goodwin,open-source,(842) 290-6729,4580 Grant Summit,Schinnerland,Illinois,70136-8227
Rempel,Awesome,(221) 764-1342,6294 Frami Key,Collinsburgh,Ohio,06670
Abbott,Fish,(783) 375-6222,771 Stephan Forges,Phyllisberg,Pennsylvania,77591
Stamm,Health,(410) 550-0579,777 Legros Lakes,East Benborough,New Mexico,72688
Feil,Berkshire,(270) 478-0055,4070 Wilderman Crest,Greenfelderport,Vermont,31078-3685
Orn,Ford,(443) 676-5539,1705 Murphy Curve,East Damien,Montana,28975
Conn,Oval,(800) 380-1995,7266 Dangelo Rest,Pansyfort,New York,40770
Morar,Orchestrator,(764) 692-7580,360 Margarete Estate,Predovicchester,Wisconsin,13642-6062
Hyatt,violet,(492) 731-0807,05293 Bergstrom Passage,New Garett,Indiana,74780
Luettgen,array,(349) 977-6384,72408 Mertz Land,Port Brooklyn,Kansas,87634-3684
Nolan,Steel,(427) 789-0308,557 Delaney Valleys,West Joanne,California,89484-8490
Kuhlman,azure,(201) 321-0971,41758 Cruickshank Trail,Port Moses,Texas,85957
Kilback,plum,(509) 851-4393,891 Mohamed Mills,Haneton,Louisiana,44484
Jacobi,copy,(534) 960-9130,247 Kirlin Grove,Christiansenville,Kentucky,47364-3406
Reichel,website,(211) 859-8622,863 Jamison Ridges,Rohanstad,Florida,78860-9005
Bednar,drive,(769) 527-3769,7904 Ryan Harbors,West Rosamond,Michigan,23744-6906
Zemlak,Kids,(783) 544-2442,2907 Zemlak Fords,Goyettemouth,West Virginia,81209
Towne,facilitate,(351) 634-6008,797 Amelie Corners,Felicityland,Montana,07591-0248
Beer,Auto,(549) 732-8048,615 Ullrich Haven,Keeleybury,Wyoming,89504
Predovic,synergies,(356) 583-8142,48089 Gorczany Vista,Geoffreyburgh,Tennessee,74726
